{
  "norad_id": 59019,
  "name": "STARLINK-31436",
  "history": [
    {
      "epoch": "2026-05-03T11:05:15.356256Z",
      "apogee_km": 475.8938164492374,
      "perigee_km": 474.2742632531008,
      "latitude_deg": 2.2707026353095515e-05,
      "longitude_deg": 156.4162049999096,
      "height_km": 475.57575849936734,
      "semi_major_axis_km": 6853.221039851169,
      "eccentricity": 0.00011816,
      "inclination_deg": 53.1599,
      "raan_deg": 184.0955,
      "arg_perigee_deg": 59.8516,
      "mean_anomaly_deg": 300.2602,
      "mean_motion_rev_day": 15.30243885
    },
    {
      "epoch": "2026-05-04T10:36:06.397344Z",
      "apogee_km": 475.9427403726486,
      "perigee_km": 474.5981018366283,
      "latitude_deg": 4.7039621089385984e-05,
      "longitude_deg": 158.18775575544416,
      "height_km": 475.9775376409762,
      "semi_major_axis_km": 6853.407421104638,
      "eccentricity": 9.81e-05,
      "inclination_deg": 53.1587,
      "raan_deg": 179.5454,
      "arg_perigee_deg": 73.473,
      "mean_anomaly_deg": 286.6379,
      "mean_motion_rev_day": 15.30181462
    },
    {
      "epoch": "2026-05-05T13:14:59.926272Z",
      "apogee_km": 476.026797212382,
      "perigee_km": 474.44640925947533,
      "latitude_deg": 1.817724965583233e-05,
      "longitude_deg": 112.21509013904186,
      "height_km": 476.11648548765515,
      "semi_major_axis_km": 6853.373603235928,
      "eccentricity": 0.0001153,
      "inclination_deg": 53.1579,
      "raan_deg": 174.3902,
      "arg_perigee_deg": 88.6859,
      "mean_anomaly_deg": 271.4274,
      "mean_motion_rev_day": 15.30192788
    }
  ]
}